KUIPER-00133            
1 65764U 25217C   25352.19764145 -.00001281  00000+0 -13848-3 0  9999
2 65764  51.9054  53.4526 0011742  51.8836 308.3183 14.79914544 12675
KUIPER-00139            
1 65765U 25217D   25351.87042858  .00005614  00000+0  44688-3 0  9992
2 65765  51.8863  48.4525 0008464  38.9527 321.2053 15.01715803 12714
KUIPER-00142            
1 65766U 25217E   25352.33335648 -.01306944  00000+0 -73991-1 0  9997
2 65766  51.8806  38.6507 0003829  72.2177  92.9742 15.15872761  5671
KUIPER-00145            
1 65767U 25217F   25352.33335648 -.00735221  00000+0 -51693-1 0  9996
2 65767  51.9011  40.1333 0006345  28.1133  44.9094 15.07351446  4897
KUIPER-00147            
1 65768U 25217G   25352.33335648 -.00037562  00000+0 -29768-2 0  9999
2 65768  51.8899  42.2498 0010323  47.4609  36.1273 15.00019435  5502
KUIPER-00148            
1 65769U 25217H   25352.33335648 -.00022304  00000+0 -12816-2 0  9994
2 65769  51.8768  41.5996 0009770  66.7115  72.3282 15.11628391  5335
KUIPER-00150            
1 65770U 25217J   25350.50412299  .00002473  00000+0  35379-3 0  9994
2 65770  51.9015  58.3586 0000688  81.0086 279.0955 14.79876963 12457
KUIPER-00151            
1 65771U 25217K   25352.33335648 -.00082465  00000+0 -80970-2 0  9997
2 65771  51.8931  43.2865 0003735  63.3385   4.6851 14.92128842  5313
